{
    "links": {
        "self": "http://www.neowsapp.com/rest/v1/neo/3582040?api_key=iIulBulltgU6a56xZRHN4H3l9WmuAYTsLGpBGhQ2"
    },
    "id": "3582040",
    "neo_reference_id": "3582040",
    "name": "(2011 UD)",
    "designation": "2011 UD",
    "nasa_jpl_url": "http://ssd.jpl.nasa.gov/sbdb.cgi?sstr=3582040",
    "absolute_magnitude_h": 20.7,
    "estimated_diameter": {
        "kilometers": {
            "estimated_diameter_min": 0.1925550782,
            "estimated_diameter_max": 0.4305662442
        },
        "meters": {
            "estimated_diameter_min": 192.5550781879,
            "estimated_diameter_max": 430.566244241
        },
        "miles": {
            "estimated_diameter_min": 0.1196481415,
            "estimated_diameter_max": 0.2675413778
        },
        "feet": {
            "estimated_diameter_min": 631.7424027221,
            "estimated_diameter_max": 1412.6189567557
        }
    },
    "is_potentially_hazardous_asteroid": false,
    "close_approach_data": [
        {
            "close_approach_date": "2011-11-06",
            "close_approach_date_full": "2011-Nov-06 00:33",
            "epoch_date_close_approach": 1320539580000,
            "relative_velocity": {
                "kilometers_per_second": "22.4308706606",
                "kilometers_per_hour": "80751.1343779843",
                "miles_per_hour": "50175.614580587"
            },
            "miss_distance": {
                "astronomical": "0.136673869",
                "lunar": "53.166135041",
                "kilometers": "20446119.68705903",
                "miles": "12704629.652033414"
            },
            "orbiting_body": "Earth"
        }
    ],
    "orbital_data": {
        "orbit_id": "14",
        "orbit_determination_date": "2017-04-06 08:52:28",
        "first_observation_date": "2011-10-17",
        "last_observation_date": "2011-11-02",
        "data_arc_in_days": 16,
        "observations_used": 119,
        "orbit_uncertainty": "8",
        "minimum_orbit_intersection": ".101496",
        "jupiter_tisserand_invariant": "3.332",
        "epoch_osculation": "2455856.5",
        "eccentricity": ".7805499911596564",
        "semi_major_axis": "2.032515661020488",
        "inclination": "8.816616460089174",
        "ascending_node_longitude": "357.366613947608",
        "orbital_period": "1058.398651391596",
        "perihelion_distance": ".4460355797790829",
        "perihelion_argument": "146.7364754345751",
        "aphelion_distance": "3.618995742261893",
        "perihelion_time": "2455917.623923495176",
        "mean_anomaly": "339.2095233404432",
        "mean_motion": ".3401364878221145",
        "equinox": "J2000",
        "orbit_class": {
            "orbit_class_type": "APO",
            "orbit_class_description": "Near-Earth asteroid orbits which cross the Earth’s orbit similar to that of 1862 Apollo",
            "orbit_class_range": "a (semi-major axis) > 1.0 AU; q (perihelion) < 1.017 AU"
        }
    },
    "is_sentry_object": false
}